     2.10           G: GLONASS NAV DATA                     RINEX VERSION / TYPE
teqc  2015Jun23                         20210407 03:39:22UTCPGM / RUN BY / DATE
Linux 2.4.21-27.ELsmp|Opteron|gcc -static|Linux x86_64|=+   COMMENT
  2021     3    21    2.328306436539D-09                    CORR TO SYSTEM TIME
                                                            END OF HEADER
 3 21  3 22 19 45  0.0 3.286544233561D-05 9.094947017729D-13 7.020000000000D+04
    6.130442871094D+03-2.658068656921D+00 1.862645149231D-09 0.000000000000D+00
    1.308482177734D+04-1.092384338379D+00-0.000000000000D+00 5.000000000000D+00
    2.107980371094D+04 1.449464797974D+00-9.313225746155D-10 0.000000000000D+00
12 21  3 22 19 45  0.0 2.147005870938D-04 2.728484105319D-12 7.020000000000D+04
   -1.996074511719D+04 1.541563987732D+00-0.000000000000D+00 0.000000000000D+00
    7.839333496094D+03-1.098237991333D+00-0.000000000000D+00-1.000000000000D+00
    1.381345898438D+04 2.857107162476D+00-2.793967723846D-09 0.000000000000D+00
13 21  3 22 19 45  0.0-5.235336720943D-05-0.000000000000D+00 7.020000000000D+04
   -1.851368017578D+04-2.053442001343D-01-9.313225746155D-10 0.000000000000D+00
    1.730340283203D+04 3.738193511963D-01-0.000000000000D+00-2.000000000000D+00
   -2.923850585938D+03 3.538466453552D+00-9.313225746155D-10 0.000000000000D+00
14 21  3 22 19 45  0.0 6.229244172573D-05 0.000000000000D+00 7.020000000000D+04
   -6.034620605469D+03-1.904901504517D+00-1.862645149231D-09 0.000000000000D+00
    1.649358349609D+04 1.671573638916D+00 0.000000000000D+00-7.000000000000D+00
   -1.849775732422D+04 2.110157012939D+00 0.000000000000D+00 0.000000000000D+00
18 21  3 22 19 45  0.0 7.067248225212D-05 9.094947017729D-13 7.020000000000D+04
    8.979726074219D+03 4.685564041138D-01 1.862645149231D-09 0.000000000000D+00
    1.993790136719D+04 1.755154609680D+00-0.000000000000D+00-3.000000000000D+00
    1.320210009766D+04-2.967298507690D+00-0.000000000000D+00 0.000000000000D+00
24 21  3 22 19 45  0.0 3.598816692829D-05 9.094947017729D-13 7.020000000000D+04
   -6.344770507812D+03-2.316551208496D-01-1.862645149231D-09 0.000000000000D+00
    1.661803564453D+04-2.497509002686D+00 0.000000000000D+00 2.000000000000D+00
   -1.826167626953D+04-2.190388679504D+00 0.000000000000D+00 0.000000000000D+00
17 21  3 22 20 15  0.0 4.101786762476D-04 2.728484105319D-12 7.200000000000D+04
    2.384525878906D+03-1.735916137695D-01-0.000000000000D+00 0.000000000000D+00
    2.351893847656D+04-1.314007759094D+00-0.000000000000D+00 4.000000000000D+00
   -9.534829589844D+03-3.283655166626D+00 0.000000000000D+00 0.000000000000D+00
14 21  3 22 20 15  0.0 6.229337304831D-05 0.000000000000D+00 7.200000000000D+04
   -8.863819824219D+03-1.231178283691D+00-1.862645149231D-09 0.000000000000D+00
    1.937095507812D+04 1.479783058167D+00 0.000000000000D+00-7.000000000000D+00
   -1.403346484375D+04 2.817941665649D+00-0.000000000000D+00 0.000000000000D+00
 3 21  3 22 20 15  0.0 3.286730498075D-05 9.094947017729D-13 7.200000000000D+04
    9.775249023438D+02-3.023548126221D+00 1.862645149231D-09 0.000000000000D+00
    1.140544042969D+04-7.482213973999D-01-9.313225746155D-10 5.000000000000D+00
    2.284506445312D+04 4.992027282715D-01-1.862645149231D-09 0.000000000000D+00
13 21  3 22 20 15  0.0-5.235429853201D-05-0.000000000000D+00 7.200000000000D+04
   -1.827896484375D+04 4.375867843628D-01-9.313225746155D-10 0.000000000000D+00
    1.744234521484D+04-2.485179901123D-01-0.000000000000D+00-2.000000000000D+00
    3.476129394531D+03 3.526427268982D+00-1.862645149231D-09 0.000000000000D+00
18 21  3 22 20 15  0.0 7.067620754242D-05 9.094947017729D-13 7.200000000000D+04
    9.893555175781D+03 5.045909881592D-01 9.313225746155D-10 0.000000000000D+00
    2.234989501953D+04 9.097642898560D-01-0.000000000000D+00-3.000000000000D+00
    7.421373046875D+03-3.414195060730D+00-0.000000000000D+00 0.000000000000D+00
24 21  3 22 20 15  0.0 3.599002957344D-05 9.094947017729D-13 7.200000000000D+04
   -7.186776855469D+03-7.148532867432D-01-1.862645149231D-09 0.000000000000D+00
    1.175700537109D+04-2.855052947998D+00 0.000000000000D+00 2.000000000000D+00
   -2.144615917969D+04-1.324892997742D+00 0.000000000000D+00 0.000000000000D+00
15 21  3 22 20 15  0.0 1.047812402248D-04-0.000000000000D+00 7.341000000000D+04
    5.530482421875D+03-2.127590179443D+00-9.313225746155D-10 0.000000000000D+00
    1.001095849609D+04 2.286768913269D+00 0.000000000000D+00 0.000000000000D+00
   -2.278588476562D+04 4.883375167847D-01 9.313225746155D-10 0.000000000000D+00
15 21  3 22 20 45  0.0 1.047812402248D-04-0.000000000000D+00 7.380000000000D+04
    2.122317382812D+03-1.636180877686D+00-9.313225746155D-10 0.000000000000D+00
    1.424778027344D+04 2.375386238098D+00 0.000000000000D+00 0.000000000000D+00
   -2.103621484375D+04 1.443100929260D+00 9.313225746155D-10 0.000000000000D+00
14 21  3 22 20 45  0.0 6.229430437088D-05 0.000000000000D+00 7.380000000000D+04
   -1.047370947266D+04-5.686445236206D-01-1.862645149231D-09 0.000000000000D+00
    2.166031250000D+04 1.022026062012D+00 0.000000000000D+00-7.000000000000D+00
   -8.484274414062D+03 3.307784080505D+00-9.313225746155D-10 0.000000000000D+00
13 21  3 22 20 45  0.0-5.235522985458D-05-0.000000000000D+00 7.380000000000D+04
   -1.706349462891D+04 8.732404708862D-01-9.313225746155D-10 0.000000000000D+00
    1.633157666016D+04-9.986057281494D-01-0.000000000000D+00-2.000000000000D+00
    9.607103027344D+03 3.241462707520D+00-1.862645149231D-09 0.000000000000D+00
17 21  3 22 20 45  0.0 4.101842641830D-04 2.728484105319D-12 7.380000000000D+04
    1.639628417969D+03-6.778821945190D-01-9.313225746155D-10 0.000000000000D+00
    2.054435791016D+04-1.952162742615D+00 0.000000000000D+00 4.000000000000D+00
   -1.499945166016D+04-2.748642921448D+00 0.000000000000D+00 0.000000000000D+00
18 21  3 22 20 45  0.0 7.067900151014D-05 9.094947017729D-13 7.380000000000D+04
    1.064066259766D+04 2.828807830811D-01 0.000000000000D+00 0.000000000000D+00
    2.319468603516D+04 3.384780883789D-02-0.000000000000D+00-3.000000000000D+00
    1.069134277344D+03-3.598204612732D+00-0.000000000000D+00 0.000000000000D+00
24 21  3 22 20 45  0.0 3.599282354116D-05 9.094947017729D-13 7.380000000000D+04
   -8.924951660156D+03-1.209076881409D+00-1.862645149231D-09 0.000000000000D+00
    6.522280273438D+03-2.910122871399D+00 9.313225746155D-10 2.000000000000D+00
   -2.296953320312D+04-3.567342758179D-01 0.000000000000D+00 0.000000000000D+00
 3 21  3 22 20 45  0.0 3.287103027105D-05 9.094947017729D-13 7.401000000000D+04
   -4.581539550781D+03-3.102490425110D+00 9.313225746155D-10 0.000000000000D+00
    1.045360302734D+04-3.006649017334D-01-9.313225746155D-10 5.000000000000D+00
    2.285345068359D+04-4.900922775269D-01-2.793967723846D-09 0.000000000000D+00
15 21  3 22 21 15  0.0 1.047803089023D-04-0.000000000000D+00 7.560000000000D+04
   -3.085053710938D+02-1.059674263000D+00-1.862645149231D-09 0.000000000000D+00
    1.839031152344D+04 2.178807258606D+00 0.000000000000D+00 0.000000000000D+00
   -1.765794970703D+04 2.286111831665D+00 0.000000000000D+00 0.000000000000D+00
14 21  3 22 21 15  0.0 6.229523569345D-05 0.000000000000D+00 7.560000000000D+04
   -1.098085253906D+04-2.182197570801D-02-9.313225746155D-10 0.000000000000D+00
    2.291661523438D+04 3.428325653076D-01 0.000000000000D+00-7.000000000000D+00
   -2.279282226562D+03 3.541893005371D+00-1.862645149231D-09 0.000000000000D+00
13 21  3 22 21 15  0.0-5.235616117716D-05-0.000000000000D+00 7.560000000000D+04
   -1.528832177734D+04 1.055368423462D+00-0.000000000000D+00 0.000000000000D+00
    1.383445117188D+04-1.769955635071D+00-0.000000000000D+00-2.000000000000D+00
    1.499432812500D+04 2.705380439758D+00-2.793967723846D-09 0.000000000000D+00
17 21  3 22 21 15  0.0 4.101889207959D-04 2.728484105319D-12 7.560000000000D+04
   -1.116962890625D+02-1.274578094482D+00-1.862645149231D-09 0.000000000000D+00
    1.665053662109D+04-2.326133728027D+00 9.313225746155D-10 4.000000000000D+00
   -1.930191015625D+04-2.000797271729D+00 0.000000000000D+00 0.000000000000D+00
18 21  3 22 21 15  0.0 7.068272680044D-05 9.094947017729D-13 7.560000000000D+04
    1.076884228516D+04-1.758308410645D-01-0.000000000000D+00 0.000000000000D+00
    2.252449218750D+04-7.547159194946D-01-0.000000000000D+00-3.000000000000D+00
   -5.365428222656D+03-3.505036354065D+00 0.000000000000D+00 0.000000000000D+00
 3 21  3 22 21 15  0.0 3.287289291620D-05 9.094947017729D-13 7.572000000000D+04
   -1.000741455078D+04-2.876282691956D+00 0.000000000000D+00 0.000000000000D+00
    1.032193994141D+04 1.450843811035D-01-0.000000000000D+00 5.000000000000D+00
    2.110278857422D+04-1.442709922791D+00-2.793967723846D-09 0.000000000000D+00
19 21  3 22 21 15  0.0-1.367647200823D-04-9.094947017729D-13 7.698000000000D+04
    1.535787890625D+04 9.270887374878D-01 9.313225746155D-10 0.000000000000D+00
    1.731106689453D+04 1.166405677795D+00-9.313225746155D-10 3.000000000000D+00
    1.073653466797D+04-3.206804275513D+00-0.000000000000D+00 0.000000000000D+00
 3 21  3 22 21 45  0.0 3.287475556135D-05 0.000000000000D+00 7.740000000000D+04
   -1.476852001953D+04-2.372097969055D+00-0.000000000000D+00 0.000000000000D+00
    1.091203369141D+04 4.850206375122D-01-0.000000000000D+00 5.000000000000D+00
    1.772581201172D+04-2.285402297974D+00-2.793967723846D-09 0.000000000000D+00
14 21  3 22 21 45  0.0 6.229523569345D-05 0.000000000000D+00 7.740000000000D+04
   -1.067088964844D+04 3.285560607910D-01-9.313225746155D-10 0.000000000000D+00
    2.281057373047D+04-4.754114151001D-01 0.000000000000D+00-7.000000000000D+00
    4.101867187500D+03 3.502259254456D+00-1.862645149231D-09 0.000000000000D+00
13 21  3 22 21 45  0.0-5.235802382231D-05-0.000000000000D+00 7.740000000000D+04
   -1.341823632812D+04 9.822196960449D-01-0.000000000000D+00 0.000000000000D+00
    1.001571484375D+04-2.448384284973D+00-0.000000000000D+00-2.000000000000D+00
    1.922030371094D+04 1.959568023682D+00-2.793967723846D-09 0.000000000000D+00
